43072,IRIDIUM 116,2017,100.4,860.0,+,86.4,Active,1,LEO,USA,USA,Commercial/Government,Communications,Falcon,1 43072U 17083C   24265.43775996  .00000505  00000+0  17310-3 0  9998,2 43072  86.3969 226.8171 0002319  89.1087 271.0375 14.34214895353337,14.34214895,0.0002319,LEO
43074,IRIDIUM 151,2017,100.4,860.0,+,86.4,Active,1,LEO,USA,USA,Commercial/Government,Communications,Falcon,1 43074U 17083E   24265.65975013  .00000498  00000+0  17060-3 0  9999,2 43074  86.3974 226.7674 0002428  82.0426 278.1046 14.34215241353331,14.34215241,0.0002428,LEO
43075,IRIDIUM 134,2017,100.4,860.0,+,86.4,Active,1,LEO,USA,USA,Commercial/Government,Communications,Falcon,1 43075U 17083F   24265.90711639  .00000034  00000+0  52199-5 0  9990,2 43075  86.3976 226.6636 0002245  91.0063 269.1390 14.34213994353330,14.34213994,0.0002245,LEO
43077,IRIDIUM 141,2017,100.4,860.0,+,86.4,Active,1,LEO,USA,USA,Commercial/Government,Communications,Falcon,1 43077U 17083H   24265.84369880  .00000725  00000+0  25165-3 0  9990,2 43077  86.3972 226.6366 0002235  84.1106 276.0344 14.34214237353391,14.34214237,0.0002235,LEO
43078,IRIDIUM 153,2017,100.4,860.0,+,86.4,Active,1,LEO,USA,USA,Commercial/Government,Communications,Falcon,1 43078U 17083J   24265.51679586  .00000772  00000+0  26867-3 0  9994,2 43078  86.4037 195.2868 0001991  68.4821 291.6587 14.34221027354455,14.34221027,0.0001991,LEO
